$$SOE
2458453.402777778 = A.D. 2018-Nov-30 21:40:00.0000 TDB 
 X = 5.429462815913019E+07 Y = 1.268428228405260E+08 Z = 5.497709057874335E+07
 VX=-3.093324270196291E+01 VY= 3.098666176414631E+00 VZ= 5.998908941138839E+00
 LT= 4.954239749559404E+02 RG= 1.485243712041718E+08 RR=-6.441116548183160E+00
2458453.406250000 = A.D. 2018-Nov-30 21:45:00.0000 TDB 
 X = 5.428566098475043E+07 Y = 1.268436320631283E+08 Z = 5.497872265145614E+07
 VX=-2.881696708356433E+01 VY= 2.428483265955485E+00 VZ= 4.861293079296522E+00
 LT= 4.954173618401228E+02 RG= 1.485223886419258E+08 RR=-6.659216788515104E+00
2458453.409722222 = A.D. 2018-Nov-30 21:50:00.0000 TDB 
 X = 5.427734480381480E+07 Y = 1.268443616075708E+08 Z = 5.498000155096889E+07
 VX=-2.663268730171700E+01 VY= 2.572313608837312E+00 VZ= 3.665839670163550E+00
 LT= 4.954108809980348E+02 RG= 1.485204457343463E+08 RR=-6.179083282919437E+00
2458453.413194444 = A.D. 2018-Nov-30 21:55:00.0000 TDB 
 X = 5.426966457515050E+07 Y = 1.268452555855565E+08 Z = 5.498092930218672E+07
 VX=-2.461580552859408E+01 VY= 3.514775945076297E+00 VZ= 2.541615676708405E+00
 LT= 4.954052116447290E+02 RG= 1.485187461049835E+08 RR=-5.052011843945647E+00
2458453.416666667 = A.D. 2018-Nov-30 22:00:00.0000 TDB 
 X = 5.426253668690486E+07 Y = 1.268465404193454E+08 Z = 5.498154585914250E+07
 VX=-2.298392497674432E+01 VY= 5.154339558589227E+00 VZ= 1.610125040540538E+00
 LT= 4.954009459645123E+02 RG= 1.485174672862263E+08 RR=-3.399120497912124E+00
2458453.420138889 = A.D. 2018-Nov-30 22:05:00.0000 TDB 
 X = 5.425581789727421E+07 Y = 1.268484003672802E+08 Z = 5.498192482812534E+07
 VX=-2.191332003845685E+01 VY= 7.313936908178013E+00 VZ= 9.721432778528736E-01
 LT= 4.953985250411963E+02 RG= 1.485167415116748E+08 RR=-1.398587079155720E+00
2458453.423611111 = A.D. 2018-Nov-30 22:10:00.0000 TDB 
 X = 5.424932077587660E+07 Y = 1.268509575137421E+08 Z = 5.498216551440782E+07
 VX=-2.151954504953595E+01 VY= 9.759925679123645E+00 VZ= 6.966139832866745E-01
 LT= 4.953981908655633E+02 RG= 1.485166413283404E+08 RR= 7.334973351873267E-01
2458453.427083333 = A.D. 2018-Nov-30 22:15:00.0000 TDB 
 X = 5.424283403872772E+07 Y = 1.268542584972172E+08 Z = 5.498238211881235E+07
 VX=-2.184457858783293E+01 VY= 1.222765644864193E+01 VZ= 8.129697326575283E-01
 LT= 4.953999599626893E+02 RG= 1.485171716903162E+08 RR= 2.766800961671015E+00
2458453.430555556 = A.D. 2018-Nov-30 22:20:00.0000 TDB 
 X = 5.423614552013933E+07 Y = 1.268582695496565E+08 Z = 5.498269128569635E+07
 VX=-2.285232392121706E+01 VY= 1.445073502476406E+01 VZ= 1.307947904867938E+00
 LT= 4.954036218589172E+02 RG= 1.485182694991873E+08 RR= 4.482194489698538E+00
2458453.434027778 = A.D. 2018-Nov-30 22:25:00.0000 TDB 
 X = 5.422906514378625E+07 Y = 1.268628804089794E+08 Z = 5.498319943465866E+07
 VX=-2.443309524957482E+01 VY= 1.619026819404107E+01 VZ= 2.127335937190933E+00
 LT= 4.954087625464064E+02 RG= 1.485198106385255E+08 RR= 5.695724201361614E+00
2458453.437500000 = A.D. 2018-Nov-30 22:30:00.0000 TDB 
 X = 5.422144528557599E+07 Y = 1.268679165368332E+08 Z = 5.498399131823016E+07
 VX=-2.641626385335871E+01 VY= 1.726043053819894E+01 VZ= 3.182283737669644E+00
 LT= 4.954148099322131E+02 RG= 1.485216235991810E+08 RR= 6.278153271852039E+00
2458453.440972222 = A.D. 2018-Nov-30 22:35:00.0000 TDB 
 X = 5.421319635475184E+07 Y = 1.268731580941267E+08 Z = 5.498512103721511E+07
 VX=-2.858909994414286E+01 VY= 1.754759378842865E+01 VZ= 4.359174597866058E+00
 LT= 4.954210957360925E+02 RG= 1.485235080357765E+08 RR= 6.168059905228811E+00
2458453.444444444 = A.D. 2018-Nov-30 22:40:00.0000 TDB 
 X = 5.420429609483872E+07 Y = 1.268783634873214E+08 Z = 5.498660639120424E+07
 VX=-3.071939631084008E+01 VY= 1.702152140675017E+01 VZ= 5.531763669784286E+00
 LT= 4.954269268663987E+02 RG= 1.485252561646639E+08 RR= 5.377620337779391E+00
2458453.447916667 = A.D. 2018-Nov-30 22:45:00.0000 TDB 
 X = 5.419479181956894E+07 Y = 1.268832950127337E+08 Z = 5.498842705343827E+07
 VX=-3.257959344584052E+01 VY= 1.573814030853017E+01 VZ= 6.574339842038784E+00
 LT= 4.954316588832117E+02 RG= 1.485266747876156E+08 RR= 3.991036781989538E+00
2458453.451388889 = A.D. 2018-Nov-30 22:50:00.0000 TDB 
 X = 5.418479543931096E+07 Y = 1.268877440682704E+08 Z = 5.499052670780858E+07
 VX=-3.397039785915487E+01 VY= 1.383390990725127E+01 VZ= 7.374806188742803E+00
 LT= 4.954347643440042E+02 RG= 1.485276057813398E+08 RR= 2.155956367753552E+00
2458453.454861111 = A.D. 2018-Nov-30 22:55:00.0000 TDB 
 X = 5.417447172276606E+07 Y = 1.268915534481522E+08 Z = 5.499281896293408E+07
 VX=-3.474192183210435E+01 VY= 1.151207828551938E+01 VZ= 7.846587743774711E+00
 LT= 4.954358892810009E+02 RG= 1.485279430289671E+08 RR= 6.844647708213859E-02
2458453.458333333 = A.D. 2018-Nov-30 23:00:00.0000 TDB 
 X = 5.416402085507573E+07 Y = 1.268946343874447E+08 Z = 5.499519651481953E+07
 VX=-3.481019684483438E+01 VY= 9.021624071518533E+00 VZ= 7.938164958683414E+00
 LT= 4.954348918167867E+02 RG= 1.485276439967186E+08 RR=-2.047454532258359E+00
2458453.461805556 = A.D. 2018-Nov-30 23:05:00.0000 TDB 
 X = 5.415365700805514E+07 Y = 1.268969763973536E+08 Z = 5.499754265824199E+07
 VX=-3.416691206837836E+01 VY= 6.630645779420133E+00 VZ= 7.639011463293470E+00
 LT= 4.954318583244663E+02 RG= 1.485267345785995E+08 RR=-3.963781194383014E+00
2458453.465277778 = A.D. 2018-Nov-30 23:10:00.0000 TDB 
 X = 5.414358521424772E+07 Y = 1.268986486339084E+08 Z = 5.499974391622269E+07
 VX=-3.288079997188155E+01 VY= 4.597091388488354E+00 VZ= 6.981007262742803E+00
 LT= 4.954270948219828E+02 RG= 1.485253065164813E+08 RR=-5.473586405466169E+00
2458453.468750000 = A.D. 2018-Nov-30 23:15:00.0000 TDB 
 X = 5.413397914616568E+07 Y = 1.268997925346013E+08 Z = 5.500170236816105E+07
 VX=-3.109026392676154E+01 VY= 3.140435591626406E+00 VZ= 6.035025567789946E+00
 LT= 4.954210942500557E+02 RG= 1.485235075902739E+08 RR=-6.413680968122946E+00
2458453.472222222 = A.D. 2018-Nov-30 23:20:00.0000 TDB 
 X = 5.412496231619272E+07 Y = 1.269006065440221E+08 Z = 5.500334627877393E+07
 VX=-2.898821392613966E+01 VY= 2.417795033321388E+00 VZ= 4.903143777316299E+00
 LT= 4.954144832923388E+02 RG= 1.485215256750102E+08 RR=-6.682378265301383E+00
2458453.475694444 = A.D. 2018-Nov-30 23:25:00.0000 TDB 
 X = 5.411659475365180E+07 Y = 1.269013246817096E+08 Z = 5.500463785814965E+07
 VX=-2.680110941823073E+01 VY= 2.507105571013692E+00 VZ= 3.707517823061109E+00
 LT= 4.954079547714500E+02 RG= 1.485195684736858E+08 RR=-6.250348648235554E+00
2458453.479166667 = A.D. 2018-Nov-30 23:30:00.0000 TDB 
 X = 5.410886653503859E+07 Y = 1.269021913243431E+08 Z = 5.500557734498549E+07
 VX=-2.476464374440863E+01 VY= 3.398862413939694E+00 VZ= 2.577227334646738E+00
 LT= 4.954021930378649E+02 RG= 1.485178411494120E+08 RR=-5.163701757232319E+00
2458453.482638889 = A.D. 2018-Nov-30 23:35:00.0000 TDB 
 X = 5.410169880519440E+07 Y = 1.269034348781608E+08 Z = 5.500620300695702E+07
 VX=-2.309851631720494E+01 VY= 4.997016297304016E+00 VZ= 1.634424586563811E+00
 LT= 4.953978002379637E+02 RG= 1.485165242211321E+08 RR=-3.539181599614761E+00
2458453.486111111 = A.D. 2018-Nov-30 23:40:00.0000 TDB 
 X = 5.409495220308045E+07 Y = 1.269052430959116E+08 Z = 5.500658704696802E+07
 VX=-2.198269528053391E+01 VY= 7.128993876831510E+00 VZ= 9.811078207767809E-01
 LT= 4.953952311854313E+02 RG= 1.485157540385587E+08 RR=-1.551880864577761E+00
2458453.489583333 = A.D. 2018-Nov-30 23:45:00.0000 TDB 
 X = 5.408844187766373E+07 Y = 1.269077426915328E+08 Z = 5.500682780489680E+07
 VX=-2.153763852153252E+01 VY= 9.564152017423362E+00 VZ= 6.878911429536734E-01
 LT= 4.953947438888461E+02 RG= 1.485156079507176E+08 RR= 5.835504078032659E-01
2458453.493055556 = A.D. 2018-Nov-30 23:50:00.0000 TDB 
 X = 5.408195753805819E+07 Y = 1.269109855621594E+08 Z = 5.500703906183492E+07
 VX=-2.181089518375856E+01 VY= 1.203899431605154E+01 VZ= 7.861391019145034E-01
 LT= 4.953963714279968E+02 RG= 1.485160958746801E+08 RR= 2.636400510081465E+00
2458453.496527778 = A.D. 2018-Nov-30 23:55:00.0000 TDB 
 X = 5.407528631923635E+07 Y = 1.269149432480762E+08 Z = 5.500733763338413E+07
 VX=-2.277197200531664E+01 VY= 1.428630402413243E+01 VZ= 1.264558502191881E+00
 LT= 4.953999186009408E+02 RG= 1.485171592903759E+08 RR= 4.385382522838477E+00
2458453.500000000 = A.D. 2018-Dec-01 00:00:00.0000 TDB 
 X = 5.406823583930042E+07 Y = 1.269195102641650E+08 Z = 5.500783067827526E+07
 VX=-2.431618807368495E+01 VY= 1.606450764856665E+01 VZ= 2.070717577849181E+00
 LT= 4.954049837245389E+02 RG= 1.485186777762295E+08 RR= 5.642870959824955E+00
2458453.503472222 = A.D. 2018-Dec-01 00:05:00.0000 TDB 
 X = 5.406065482567807E+07 Y = 1.269245158059586E+08 Z = 5.500860416950515E+07
 VX=-2.627678517417754E+01 VY= 1.718357695802828E+01 VZ= 3.117166359214348E+00
 LT= 4.954110027748997E+02 RG= 1.485204822421320E+08 RR= 6.274878241020178E+00
2458453.506944444 = A.D. 2018-Dec-01 00:10:00.0000 TDB 
 X = 5.405244909786546E+07 Y = 1.269297423380872E+08 Z = 5.500971377359127E+07
 VX=-2.844338937204639E+01 VY= 1.752464057180226E+01 VZ= 4.291172129379462E+00
 LT= 4.954173104659638E+02 RG= 1.485223732403404E+08 RR= 6.214682586844226E+00
2458453.510416667 = A.D. 2018-Dec-01 00:15:00.0000 TDB 
 X = 5.404359135822056E+07 Y = 1.269349489105777E+08 Z = 5.501117903353968E+07
 VX=-3.058442642221520E+01 VY= 1.705173222104529E+01 VZ= 5.466783176113422E+00
 LT= 4.954232113524406E+02 RG= 1.485241422816017E+08 RR= 5.469162725922804E+00
2458453.513888889 = A.D. 2018-Dec-01 00:20:00.0000 TDB 
 X = 5.403412395553346E+07 Y = 1.269398967429861E+08 Z = 5.501298136210354E+07
 VX=-3.247120074422038E+01 VY= 1.581513462139149E+01 VZ= 6.517969810522459E+00
 LT= 4.954280535622873E+02 RG= 1.485255939395938E+08 RR= 4.117752404150694E+00
2458453.517361111 = A.D. 2018-Dec-01 00:25:00.0000 TDB 
 X = 5.402415443002804E+07 Y = 1.269443745465016E+08 Z = 5.501506599824961E+07
 VX=-3.390161981982494E+01 VY= 1.394630964655172E+01 VZ= 7.331732649808684E+00
 LT= 4.954312979148514E+02 RG= 1.485265665720236E+08 RR= 2.304335003824434E+00
$$EOE
